[{"OBJECT_NAME":"GONETS-M 7","OBJECT_ID":"2013-048C","EPOCH":"2026-03-09T23:42:54.853632","MEAN_MOTION":12.429108,"ECCENTRICITY":0.00186378,"INCLINATION":82.4876,"RA_OF_ASC_NODE":48.0853,"ARG_OF_PERICENTER":71.0162,"MEAN_ANOMALY":289.2936,"EPHEMERIS_TYPE":0,"CLASSIFICATION_TYPE":"U","NORAD_CAT_ID":39251,"ELEMENT_SET_NO":999,"REV_AT_EPOCH":56651,"BSTAR":0.0002596887,"MEAN_MOTION_DOT":4.6e-7,"MEAN_MOTION_DDOT":0},{"OBJECT_NAME":"COSMOS 794","OBJECT_ID":"1976-008D","EPOCH":"2026-03-09T21:46:02.856000","MEAN_MOTION":12.48156131,"ECCENTRICITY":0.00263148,"INCLINATION":74.0536,"RA_OF_ASC_NODE":218.6907,"ARG_OF_PERICENTER":45.9232,"MEAN_ANOMALY":72.522,"EPHEMERIS_TYPE":0,"CLASSIFICATION_TYPE":"U","NORAD_CAT_ID":8610,"ELEMENT_SET_NO":999,"REV_AT_EPOCH":28330,"BSTAR":8.3111855e-5,"MEAN_MOTION_DOT":-3.0e-8,"MEAN_MOTION_DDOT":0}]
